HORS 2                  
1 57196U 23091AG  26187.82265675  .00010082  00000+0  32430-3 0  9993
2 57196  97.5075 255.1253 0007745  25.4847 334.6775 15.32416428167532
A-SEANSAT-PG1           
1 57197U 23091AH  26187.79902900  .00014765  00000+0  40083-3 0  9994
2 57197  97.5066 257.8070 0006518  21.3371 338.8143 15.37679140167726
SITRO-AIS 10 (BURDAEV)  
1 57199U 23091AK  26187.82035867  .00015669  00000+0  40219-3 0  9994
2 57199  97.5067 258.8410 0005675  15.0859 345.0554 15.39399544167783
SITRO-AIS 9 (SHCHUKIN)  
1 57201U 23091AM  26187.85311525  .00015497  00000+0  40439-3 0  9992
2 57201  97.5065 258.5888 0005937  14.8916 345.2503 15.38892968167775
UTMN 2 (RS27S)          
1 57203U 23091AP  26187.84791510  .00010059  00000+0  32212-3 0  9998
2 57203  97.5074 255.3467 0007626  20.6843 339.4706 15.32562002167559
SITRO-AIS 12 (SMIRENNIY)
1 57204U 23091AQ  26187.83999360  .00015123  00000+0  39102-3 0  9993
2 57204  97.5079 259.0550 0005448   8.6611 351.4727 15.39185085167790
SITRO-AIS 11 (SHEFFER)  
1 57208U 23091AU  26187.84790781  .00015581  00000+0  39703-3 0  9999
2 57208  97.5077 259.3222 0005354   8.1992 351.9340 15.39624866167818
H2SAT (HEINRICH HERTZ)  
1 57213U 23093A   26187.78875117  .00000017  00000+0  00000+0 0  9999
2 57213   0.0142 103.0809 0001081  33.2358  73.1178  1.00270926 11110
KUZGTU 1 (RS47S)        
1 57217U 23091AV  26187.84972007  .00009395  00000+0  32219-3 0  9993
2 57217  97.5050 252.5348 0010967  35.2176 324.9787 15.30340616167380
QIANKUN-1               
1 57422U 23103B   26187.77776477  .00201077  20009-4  22982-3 0  9993
2 57422  96.1484 231.2442 0036173 142.6775 217.7034 16.07654573170448
FENGYUN 3F              
1 57490U 23111A   26187.84540709  .00000031  00000+0  34794-4 0  9998
2 57490  98.6829 257.4871 0001423  80.5610 279.5728 14.19942491151655
HJ-2F                   
1 57519U 23116A   26187.83860253  .00006494  00000+0  28208-3 0  9994
2 57519  97.3850 192.7179 0007493 346.8072  13.2967 15.22615350161747
XRISM                   
1 57800U 23137A   26187.52611569  .00003461  00000+0  18768-3 0  9991
2 57800  31.0012 234.3179 0007794 159.2962 200.7994 15.12631514155796
GRBBETA                 
1 60237U 24128C   26187.33338567  .00003982  00000+0  27635-3 0  9994
2 60237  61.9891 149.0849 0038191 138.6902 221.7091 15.06767391109153
TRANSPORTER-11 OBJECT A 
1 60468U 24149A   26187.21273139  .00008567  00000+0  26911-3 0  9993
2 60468  97.3721 267.0866 0004407 139.2620 220.8952 15.33239338104977
LOPEN                   
1 60473U 24149F   26187.16929484  .00016279  00000+0  40606-3 0  9990
2 60473  97.3769 270.6922 0002251 150.0988 210.0388 15.40275022105187
ROCK                    
1 60474U 24149G   26187.22092936  .00015933  00000+0  39759-3 0  9994
2 60474  97.3764 270.7588 0002574 149.0840 211.0558 15.40266018105191
FLOCK 4BE-7             
1 60481U 24149P   26187.18296985  .00025264  00000+0  60998-3 0  9994
2 60481  97.3750 270.4237 0003624 173.3587 186.7708 15.41170213105172
