OBJECT_NAME,OBJECT_ID,EPOCH,MEAN_MOTION,ECCENTRICITY,INCLINATION,RA_OF_ASC_NODE,ARG_OF_PERICENTER,MEAN_ANOMALY,EPHEMERIS_TYPE,CLASSIFICATION_TYPE,NORAD_CAT_ID,ELEMENT_SET_NO,REV_AT_EPOCH,BSTAR,MEAN_MOTION_DOT,MEAN_MOTION_DDOT
HORS 2,2023-091AG,2026-07-06T19:44:37.543200,15.32416428,.0007745,97.5075,255.1253,25.4847,334.6775,0,U,57196,999,16753,.3243E-3,.10082E-3,0
A-SEANSAT-PG1,2023-091AH,2026-07-06T19:10:36.105600,15.37679140,.0006518,97.5066,257.8070,21.3371,338.8143,0,U,57197,999,16772,.40083E-3,.14765E-3,0
SITRO-AIS 10 (BURDAEV),2023-091AK,2026-07-06T19:41:18.989088,15.39399544,.0005675,97.5067,258.8410,15.0859,345.0554,0,U,57199,999,16778,.40219E-3,.15669E-3,0
SITRO-AIS 9 (SHCHUKIN),2023-091AM,2026-07-06T20:28:29.157600,15.38892968,.0005937,97.5065,258.5888,14.8916,345.2503,0,U,57201,999,16777,.40439E-3,.15497E-3,0
UTMN 2 (RS27S),2023-091AP,2026-07-06T20:20:59.864640,15.32562002,.0007626,97.5074,255.3467,20.6843,339.4706,0,U,57203,999,16755,.32212E-3,.10059E-3,0
SITRO-AIS 12 (SMIRENNIY),2023-091AQ,2026-07-06T20:09:35.447040,15.39185085,.0005448,97.5079,259.0550,8.6611,351.4727,0,U,57204,999,16779,.39102E-3,.15123E-3,0
SITRO-AIS 11 (SHEFFER),2023-091AU,2026-07-06T20:20:59.234784,15.39624866,.0005354,97.5077,259.3222,8.1992,351.9340,0,U,57208,999,16781,.39703E-3,.15581E-3,0
H2SAT (HEINRICH HERTZ),2023-093A,2026-07-06T18:55:48.101088,1.00270926,.0001081,0.0142,103.0809,33.2358,73.1178,0,U,57213,999,1111,0,.17E-6,0
KUZGTU 1 (RS47S),2023-091AV,2026-07-06T20:23:35.814048,15.30340616,.0010967,97.5050,252.5348,35.2176,324.9787,0,U,57217,999,16738,.32219E-3,.9395E-4,0
QIANKUN-1,2023-103B,2026-07-06T18:39:58.876128,16.07654573,.0036173,96.1484,231.2442,142.6775,217.7034,0,U,57422,999,17044,.22982E-3,.201077E-2,.20009E-4
FENGYUN 3F,2023-111A,2026-07-06T20:17:23.172576,14.19942491,.0001423,98.6829,257.4871,80.5610,279.5728,0,U,57490,999,15165,.34794E-4,.31E-6,0
HJ-2F,2023-116A,2026-07-06T20:07:35.258592,15.22615350,.0007493,97.3850,192.7179,346.8072,13.2967,0,U,57519,999,16174,.28208E-3,.6494E-4,0
XRISM,2023-137A,2026-07-06T12:37:36.395616,15.12631514,.0007794,31.0012,234.3179,159.2962,200.7994,0,U,57800,999,15579,.18768E-3,.3461E-4,0
GRBBETA,2024-128C,2026-07-06T08:00:04.521888,15.06767391,.00381911,61.9891,149.0849,138.6902,221.7091,0,U,60237,999,10915,.27634718E-3,.3982E-4,0
TRANSPORTER-11 OBJECT A,2024-149A,2026-07-06T05:06:19.992096,15.33239338,.00044079,97.3721,267.0866,139.2620,220.8952,0,U,60468,999,10497,.26910686E-3,.8567E-4,0
LOPEN,2024-149F,2026-07-06T04:03:47.074176,15.40275022,.00022518,97.3769,270.6922,150.0988,210.0388,0,U,60473,999,10518,.40606187E-3,.16279E-3,0
ROCK,2024-149G,2026-07-06T05:18:08.296704,15.40266018,.00025745,97.3764,270.7588,149.0840,211.0558,0,U,60474,999,10519,.3975941E-3,.15933E-3,0
FLOCK 4BE-7,2024-149P,2026-07-06T04:23:28.595040,15.41170213,.00036246,97.3750,270.4237,173.3587,186.7708,0,U,60481,999,10517,.60998151E-3,.25264E-3,0
